[{"OBJECT_NAME":"CASSIOPE","OBJECT_ID":"2013-055A","EPOCH":"2026-03-09T21:11:47.938272","MEAN_MOTION":15.1877309,"ECCENTRICITY":0.03156148,"INCLINATION":80.9178,"RA_OF_ASC_NODE":186.7098,"ARG_OF_PERICENTER":35.6181,"MEAN_ANOMALY":326.5663,"EPHEMERIS_TYPE":0,"CLASSIFICATION_TYPE":"U","NORAD_CAT_ID":39265,"ELEMENT_SET_NO":999,"REV_AT_EPOCH":65256,"BSTAR":0.00049515333,"MEAN_MOTION_DOT":0.00041326,"MEAN_MOTION_DDOT":-5.06855e-7},{"OBJECT_NAME":"COSMOS 2251 DEB","OBJECT_ID":"1993-036NK","EPOCH":"2026-03-09T04:49:23.803680","MEAN_MOTION":15.49870596,"ECCENTRICITY":0.00205017,"INCLINATION":73.9617,"RA_OF_ASC_NODE":120.3452,"ARG_OF_PERICENTER":289.1634,"MEAN_ANOMALY":70.7359,"EPHEMERIS_TYPE":0,"CLASSIFICATION_TYPE":"U","NORAD_CAT_ID":34313,"ELEMENT_SET_NO":999,"REV_AT_EPOCH":90388,"BSTAR":0.0064327627,"MEAN_MOTION_DOT":0.00379566,"MEAN_MOTION_DDOT":0}]
